[{"OBJECT_NAME":"OBJECT E","OBJECT_ID":"2024-092E","EPOCH":"2026-03-09T21:25:47.709120","MEAN_MOTION":15.32997986,"ECCENTRICITY":0.0008531,"INCLINATION":97.642,"RA_OF_ASC_NODE":198.2099,"ARG_OF_PERICENTER":142.2606,"MEAN_ANOMALY":217.9236,"EPHEMERIS_TYPE":0,"CLASSIFICATION_TYPE":"U","NORAD_CAT_ID":59777,"ELEMENT_SET_NO":999,"REV_AT_EPOCH":10051,"BSTAR":0.00078641119,"MEAN_MOTION_DOT":0.00025066,"MEAN_MOTION_DDOT":0},{"OBJECT_NAME":"STARLINK-34874","OBJECT_ID":"2025-189N","EPOCH":"2026-03-09T16:43:41.161152","MEAN_MOTION":15.30193306,"ECCENTRICITY":0.00013854,"INCLINATION":53.1601,"RA_OF_ASC_NODE":207.0048,"ARG_OF_PERICENTER":53.2926,"MEAN_ANOMALY":306.8202,"EPHEMERIS_TYPE":0,"CLASSIFICATION_TYPE":"U","NORAD_CAT_ID":65335,"ELEMENT_SET_NO":999,"REV_AT_EPOCH":3110,"BSTAR":0.00090347603,"MEAN_MOTION_DOT":0.00026489,"MEAN_MOTION_DDOT":0}]
